[{"OBJECT_NAME":"OBJECT D","OBJECT_ID":"2024-173D","EPOCH":"2026-03-09T23:30:29.956896","MEAN_MOTION":15.27005733,"ECCENTRICITY":0.00090093,"INCLINATION":97.3606,"RA_OF_ASC_NODE":149.3901,"ARG_OF_PERICENTER":241.6081,"MEAN_ANOMALY":118.425,"EPHEMERIS_TYPE":0,"CLASSIFICATION_TYPE":"U","NORAD_CAT_ID":61230,"ELEMENT_SET_NO":999,"REV_AT_EPOCH":8130,"BSTAR":0.00072064626,"MEAN_MOTION_DOT":0.00019078,"MEAN_MOTION_DDOT":0},{"OBJECT_NAME":"STARLINK-36475","OBJECT_ID":"2026-003S","EPOCH":"2026-03-09T11:23:45.797568","MEAN_MOTION":15.27598575,"ECCENTRICITY":0.00027501,"INCLINATION":43.0003,"RA_OF_ASC_NODE":228.0452,"ARG_OF_PERICENTER":293.0154,"MEAN_ANOMALY":67.0408,"EPHEMERIS_TYPE":0,"CLASSIFICATION_TYPE":"U","NORAD_CAT_ID":67350,"ELEMENT_SET_NO":999,"REV_AT_EPOCH":879,"BSTAR":0.0011626147,"MEAN_MOTION_DOT":0.00031889,"MEAN_MOTION_DDOT":0}]
